<?xml version="1.0" encoding="UTF-8"?>
<ndm xmlns:xsi="http://www.w3.org/2001/XMLSchema-instance" xsi:noNamespaceSchemaLocation="https://sanaregistry.org/r/ndmxml_unqualified/ndmxml-2.0.0-master-2.0.xsd">
<omm id="CCSDS_OMM_VERS" version="2.0">
<header><CREATION_DATE/><ORIGINATOR/></header><body><segment><metadata><OBJECT_NAME>ONEWEB-0501</OBJECT_NAME><OBJECT_ID>2022-138G</OBJECT_ID><CENTER_NAME>EARTH</CENTER_NAME><REF_FRAME>TEME</REF_FRAME><TIME_SYSTEM>UTC</TIME_SYSTEM><MEAN_ELEMENT_THEORY>SGP4</MEAN_ELEMENT_THEORY></metadata><data><meanElements><EPOCH>2023-11-23T12:36:44.553888</EPOCH><MEAN_MOTION>13.19724520</MEAN_MOTION><ECCENTRICITY>.0000983</ECCENTRICITY><INCLINATION>87.9176</INCLINATION><RA_OF_ASC_NODE>131.4080</RA_OF_ASC_NODE><ARG_OF_PERICENTER>75.9032</ARG_OF_PERICENTER><MEAN_ANOMALY>284.2210</MEAN_ANOMALY></meanElements><tleParameters><EPHEMERIS_TYPE>0</EPHEMERIS_TYPE><CLASSIFICATION_TYPE>U</CLASSIFICATION_TYPE><NORAD_CAT_ID>54119</NORAD_CAT_ID><ELEMENT_SET_NO>999</ELEMENT_SET_NO><REV_AT_EPOCH>5326</REV_AT_EPOCH><BSTAR>.15167E-4</BSTAR><MEAN_MOTION_DOT>.19E-6</MEAN_MOTION_DOT><MEAN_MOTION_DDOT>0</MEAN_MOTION_DDOT></tleParameters></data></segment></body></omm>
<omm id="CCSDS_OMM_VERS" version="2.0">
<header><CREATION_DATE/><ORIGINATOR/></header><body><segment><metadata><OBJECT_NAME>ONEWEB-0502</OBJECT_NAME><OBJECT_ID>2022-138H</OBJECT_ID><CENTER_NAME>EARTH</CENTER_NAME><REF_FRAME>TEME</REF_FRAME><TIME_SYSTEM>UTC</TIME_SYSTEM><MEAN_ELEMENT_THEORY>SGP4</MEAN_ELEMENT_THEORY></metadata><data><meanElements><EPOCH>2023-11-23T12:16:16.411584</EPOCH><MEAN_MOTION>13.19725796</MEAN_MOTION><ECCENTRICITY>.000128</ECCENTRICITY><INCLINATION>87.9173</INCLINATION><RA_OF_ASC_NODE>131.4029</RA_OF_ASC_NODE><ARG_OF_PERICENTER>81.7299</ARG_OF_PERICENTER><MEAN_ANOMALY>278.3978</MEAN_ANOMALY></meanElements><tleParameters><EPHEMERIS_TYPE>0</EPHEMERIS_TYPE><CLASSIFICATION_TYPE>U</CLASSIFICATION_TYPE><NORAD_CAT_ID>54120</NORAD_CAT_ID><ELEMENT_SET_NO>999</ELEMENT_SET_NO><REV_AT_EPOCH>5328</REV_AT_EPOCH><BSTAR>.22548E-3</BSTAR><MEAN_MOTION_DOT>.103E-5</MEAN_MOTION_DOT><MEAN_MOTION_DDOT>0</MEAN_MOTION_DDOT></tleParameters></data></segment></body></omm>
<omm id="CCSDS_OMM_VERS" version="2.0">
<header><CREATION_DATE/><ORIGINATOR/></header><body><segment><metadata><OBJECT_NAME>ONEWEB-0503</OBJECT_NAME><OBJECT_ID>2022-138J</OBJECT_ID><CENTER_NAME>EARTH</CENTER_NAME><REF_FRAME>TEME</REF_FRAME><TIME_SYSTEM>UTC</TIME_SYSTEM><MEAN_ELEMENT_THEORY>SGP4</MEAN_ELEMENT_THEORY></metadata><data><meanElements><EPOCH>2023-11-23T12:00:21.140352</EPOCH><MEAN_MOTION>13.19724853</MEAN_MOTION><ECCENTRICITY>.0001914</ECCENTRICITY><INCLINATION>87.9173</INCLINATION><RA_OF_ASC_NODE>131.4129</RA_OF_ASC_NODE><ARG_OF_PERICENTER>85.0725</ARG_OF_PERICENTER><MEAN_ANOMALY>275.0626</MEAN_ANOMALY></meanElements><tleParameters><EPHEMERIS_TYPE>0</EPHEMERIS_TYPE><CLASSIFICATION_TYPE>U</CLASSIFICATION_TYPE><NORAD_CAT_ID>54121</NORAD_CAT_ID><ELEMENT_SET_NO>999</ELEMENT_SET_NO><REV_AT_EPOCH>5327</REV_AT_EPOCH><BSTAR>.19176E-3</BSTAR><MEAN_MOTION_DOT>.9E-6</MEAN_MOTION_DOT><MEAN_MOTION_DDOT>0</MEAN_MOTION_DDOT></tleParameters></data></segment></body></omm>
<omm id="CCSDS_OMM_VERS" version="2.0">
<header><CREATION_DATE/><ORIGINATOR/></header><body><segment><metadata><OBJECT_NAME>ONEWEB-0504</OBJECT_NAME><OBJECT_ID>2022-138K</OBJECT_ID><CENTER_NAME>EARTH</CENTER_NAME><REF_FRAME>TEME</REF_FRAME><TIME_SYSTEM>UTC</TIME_SYSTEM><MEAN_ELEMENT_THEORY>SGP4</MEAN_ELEMENT_THEORY></metadata><data><meanElements><EPOCH>2023-11-23T11:42:09.039168</EPOCH><MEAN_MOTION>13.19726493</MEAN_MOTION><ECCENTRICITY>.0001433</ECCENTRICITY><INCLINATION>87.9176</INCLINATION><RA_OF_ASC_NODE>131.4166</RA_OF_ASC_NODE><ARG_OF_PERICENTER>74.4314</ARG_OF_PERICENTER><MEAN_ANOMALY>285.6977</MEAN_ANOMALY></meanElements><tleParameters><EPHEMERIS_TYPE>0</EPHEMERIS_TYPE><CLASSIFICATION_TYPE>U</CLASSIFICATION_TYPE><NORAD_CAT_ID>54122</NORAD_CAT_ID><ELEMENT_SET_NO>999</ELEMENT_SET_NO><REV_AT_EPOCH>5328</REV_AT_EPOCH><BSTAR>.24814E-3</BSTAR><MEAN_MOTION_DOT>.112E-5</MEAN_MOTION_DOT><MEAN_MOTION_DDOT>0</MEAN_MOTION_DDOT></tleParameters></data></segment></body></omm>
<omm id="CCSDS_OMM_VERS" version="2.0">
<header><CREATION_DATE/><ORIGINATOR/></header><body><segment><metadata><OBJECT_NAME>ONEWEB-0505</OBJECT_NAME><OBJECT_ID>2022-138L</OBJECT_ID><CENTER_NAME>EARTH</CENTER_NAME><REF_FRAME>TEME</REF_FRAME><TIME_SYSTEM>UTC</TIME_SYSTEM><MEAN_ELEMENT_THEORY>SGP4</MEAN_ELEMENT_THEORY></metadata><data><meanElements><EPOCH>2023-11-23T11:37:36.886944</EPOCH><MEAN_MOTION>13.19726627</MEAN_MOTION><ECCENTRICITY>.0000986</ECCENTRICITY><INCLINATION>87.9175</INCLINATION><RA_OF_ASC_NODE>131.4152</RA_OF_ASC_NODE><ARG_OF_PERICENTER>60.4323</ARG_OF_PERICENTER><MEAN_ANOMALY>299.6908</MEAN_ANOMALY></meanElements><tleParameters><EPHEMERIS_TYPE>0</EPHEMERIS_TYPE><CLASSIFICATION_TYPE>U</CLASSIFICATION_TYPE><NORAD_CAT_ID>54123</NORAD_CAT_ID><ELEMENT_SET_NO>999</ELEMENT_SET_NO><REV_AT_EPOCH>5326</REV_AT_EPOCH><BSTAR>.33958E-3</BSTAR><MEAN_MOTION_DOT>.149E-5</MEAN_MOTION_DOT><MEAN_MOTION_DDOT>0</MEAN_MOTION_DDOT></tleParameters></data></segment></body></omm>
<omm id="CCSDS_OMM_VERS" version="2.0">
<header><CREATION_DATE/><ORIGINATOR/></header><body><segment><metadata><OBJECT_NAME>ONEWEB-0506</OBJECT_NAME><OBJECT_ID>2022-138M</OBJECT_ID><CENTER_NAME>EARTH</CENTER_NAME><REF_FRAME>TEME</REF_FRAME><TIME_SYSTEM>UTC</TIME_SYSTEM><MEAN_ELEMENT_THEORY>SGP4</MEAN_ELEMENT_THEORY></metadata><data><meanElements><EPOCH>2023-11-23T11:01:13.038816</EPOCH><MEAN_MOTION>13.19726245</MEAN_MOTION><ECCENTRICITY>.0001249</ECCENTRICITY><INCLINATION>87.9174</INCLINATION><RA_OF_ASC_NODE>131.4167</RA_OF_ASC_NODE><ARG_OF_PERICENTER>83.1715</ARG_OF_PERICENTER><MEAN_ANOMALY>276.9559</MEAN_ANOMALY></meanElements><tleParameters><EPHEMERIS_TYPE>0</EPHEMERIS_TYPE><CLASSIFICATION_TYPE>U</CLASSIFICATION_TYPE><NORAD_CAT_ID>54124</NORAD_CAT_ID><ELEMENT_SET_NO>999</ELEMENT_SET_NO><REV_AT_EPOCH>5325</REV_AT_EPOCH><BSTAR>.1813E-3</BSTAR><MEAN_MOTION_DOT>.86E-6</MEAN_MOTION_DOT><MEAN_MOTION_DDOT>0</MEAN_MOTION_DDOT></tleParameters></data></segment></body></omm>
<omm id="CCSDS_OMM_VERS" version="2.0">
<header><CREATION_DATE/><ORIGINATOR/></header><body><segment><metadata><OBJECT_NAME>ONEWEB-0507</OBJECT_NAME><OBJECT_ID>2022-138N</OBJECT_ID><CENTER_NAME>EARTH</CENTER_NAME><REF_FRAME>TEME</REF_FRAME><TIME_SYSTEM>UTC</TIME_SYSTEM><MEAN_ELEMENT_THEORY>SGP4</MEAN_ELEMENT_THEORY></metadata><data><meanElements><EPOCH>2023-11-23T11:30:47.522880</EPOCH><MEAN_MOTION>13.19725813</MEAN_MOTION><ECCENTRICITY>.0001225</ECCENTRICITY><INCLINATION>87.9184</INCLINATION><RA_OF_ASC_NODE>131.4167</RA_OF_ASC_NODE><ARG_OF_PERICENTER>83.6558</ARG_OF_PERICENTER><MEAN_ANOMALY>276.4714</MEAN_ANOMALY></meanElements><tleParameters><EPHEMERIS_TYPE>0</EPHEMERIS_TYPE><CLASSIFICATION_TYPE>U</CLASSIFICATION_TYPE><NORAD_CAT_ID>54125</NORAD_CAT_ID><ELEMENT_SET_NO>999</ELEMENT_SET_NO><REV_AT_EPOCH>5330</REV_AT_EPOCH><BSTAR>.31546E-3</BSTAR><MEAN_MOTION_DOT>.139E-5</MEAN_MOTION_DOT><MEAN_MOTION_DDOT>0</MEAN_MOTION_DDOT></tleParameters></data></segment></body></omm>
<omm id="CCSDS_OMM_VERS" version="2.0">
<header><CREATION_DATE/><ORIGINATOR/></header><body><segment><metadata><OBJECT_NAME>ONEWEB-0508</OBJECT_NAME><OBJECT_ID>2022-138P</OBJECT_ID><CENTER_NAME>EARTH</CENTER_NAME><REF_FRAME>TEME</REF_FRAME><TIME_SYSTEM>UTC</TIME_SYSTEM><MEAN_ELEMENT_THEORY>SGP4</MEAN_ELEMENT_THEORY></metadata><data><meanElements><EPOCH>2023-11-23T13:15:23.929056</EPOCH><MEAN_MOTION>13.19724745</MEAN_MOTION><ECCENTRICITY>.0000974</ECCENTRICITY><INCLINATION>87.9172</INCLINATION><RA_OF_ASC_NODE>131.4047</RA_OF_ASC_NODE><ARG_OF_PERICENTER>74.8630</ARG_OF_PERICENTER><MEAN_ANOMALY>285.2610</MEAN_ANOMALY></meanElements><tleParameters><EPHEMERIS_TYPE>0</EPHEMERIS_TYPE><CLASSIFICATION_TYPE>U</CLASSIFICATION_TYPE><NORAD_CAT_ID>54126</NORAD_CAT_ID><ELEMENT_SET_NO>999</ELEMENT_SET_NO><REV_AT_EPOCH>5329</REV_AT_EPOCH><BSTAR>.13947E-3</BSTAR><MEAN_MOTION_DOT>.69E-6</MEAN_MOTION_DOT><MEAN_MOTION_DDOT>0</MEAN_MOTION_DDOT></tleParameters></data></segment></body></omm>

</ndm>
