ONEWEB-0501             
1 54119U 22138G   23327.52551567  .00000019  00000+0  15167-4 0  9992
2 54119  87.9176 131.4080 0000983  75.9032 284.2210 13.19724520 53262
ONEWEB-0502             
1 54120U 22138H   23327.51130106  .00000103  00000+0  22548-3 0  9999
2 54120  87.9173 131.4029 0001280  81.7299 278.3978 13.19725796 53288
ONEWEB-0503             
1 54121U 22138J   23327.50024468  .00000090  00000+0  19176-3 0  9990
2 54121  87.9173 131.4129 0001914  85.0725 275.0626 13.19724853 53271
ONEWEB-0504             
1 54122U 22138K   23327.48760462  .00000112  00000+0  24814-3 0  9999
2 54122  87.9176 131.4166 0001433  74.4314 285.6977 13.19726493 53287
ONEWEB-0505             
1 54123U 22138L   23327.48445471  .00000149  00000+0  33958-3 0  9999
2 54123  87.9175 131.4152 0000986  60.4323 299.6908 13.19726627 53265
ONEWEB-0506             
1 54124U 22138M   23327.45917869  .00000086  00000+0  18130-3 0  9997
2 54124  87.9174 131.4167 0001249  83.1715 276.9559 13.19726245 53256
ONEWEB-0507             
1 54125U 22138N   23327.47971670  .00000139  00000+0  31546-3 0  9995
2 54125  87.9184 131.4167 0001225  83.6558 276.4714 13.19725813 53306
ONEWEB-0508             
1 54126U 22138P   23327.55236029  .00000069  00000+0  13947-3 0  9994
2 54126  87.9172 131.4047 0000974  74.8630 285.2610 13.19724745 54165
